[{"OBJECT_NAME":"GONETS-M 15","OBJECT_ID":"2019-096B","EPOCH":"2026-03-09T21:41:28.872096","MEAN_MOTION":12.42867549,"ECCENTRICITY":0.0015669,"INCLINATION":82.5277,"RA_OF_ASC_NODE":146.6402,"ARG_OF_PERICENTER":37.8227,"MEAN_ANOMALY":322.395,"EPHEMERIS_TYPE":0,"CLASSIFICATION_TYPE":"U","NORAD_CAT_ID":44906,"ELEMENT_SET_NO":999,"REV_AT_EPOCH":28131,"BSTAR":-2.7475683e-5,"MEAN_MOTION_DOT":6.0e-8,"MEAN_MOTION_DDOT":0},{"OBJECT_NAME":"DELTA 1 DEB","OBJECT_ID":"1973-086AA","EPOCH":"2026-03-09T12:47:38.573376","MEAN_MOTION":12.43843918,"ECCENTRICITY":0.00160996,"INCLINATION":102.1168,"RA_OF_ASC_NODE":49.9189,"ARG_OF_PERICENTER":194.6483,"MEAN_ANOMALY":292.0618,"EPHEMERIS_TYPE":0,"CLASSIFICATION_TYPE":"U","NORAD_CAT_ID":7034,"ELEMENT_SET_NO":999,"REV_AT_EPOCH":37353,"BSTAR":0.00055351391,"MEAN_MOTION_DOT":3.2e-7,"MEAN_MOTION_DDOT":0}]
